ONEWEB-0176             
1 48210U 21031A   24237.56320059  .00000084  00000+0  19287-3 0  9991
2 48210  87.8923  61.2890 0001707  89.6583 270.4743 13.14503269161395
ONEWEB-0184             
1 48211U 21031B   24237.53623815 -.00000149  00000+0 -43727-3 0  9995
2 48211  87.8921  61.2752 0001359 125.2554 234.8703 13.14503857161369
ONEWEB-0179             
1 48212U 21031C   24237.58222920  .00000312  00000+0  80754-3 0  9994
2 48212  87.8924  61.2720 0001827  90.4729 269.6610 13.14504467161412
ONEWEB-0180             
1 48213U 21031D   24237.53941685 -.00000166  00000+0 -48255-3 0  9995
2 48213  87.8922  61.2766 0001892  92.4172 267.7174 13.14505500161296
ONEWEB-0218             
1 48214U 21031E   24237.56160765  .00000042  00000+0  78812-4 0  9995
2 48214  87.8920  61.2738 0001741 126.2454 233.8837 13.14504847161457
ONEWEB-0198             
1 48216U 21031G   24237.53465589 -.00000115  00000+0 -34409-3 0  9992
2 48216  87.8923  61.3188 0001820 102.6630 257.4704 13.14500237161560
ONEWEB-0189             
1 48217U 21031H   24237.54734307 -.00000144  00000+0 -42307-3 0  9999
2 48217  87.8922  61.2916 0001918 103.4232 256.7111 13.14503651161302
